NORAD_CAT_ID,EPOCH_UNIX,MEAN_MOTION,ECCENTRICITY,INCLINATION,RA_OF_ASC_NODE,ARG_OF_PERICENTER,MEAN_ANOMALY,APOAPSIS,PERIAPSIS,BSTAR
37908,1754680275,14.36064938,0.0075197,99.1656,244.795,164.8366,195.5097,825.295,717.768,0.00042856
37912,1754685948,14.10098971,0.009609,99.2199,186.1354,52.1859,308.7961,928.577,789.493,0.002241
37917,1754654250,14.13334007,0.0046281,98.9327,318.8843,48.1356,312.3751,881.43,814.544,0.00060928
37918,1754722496,14.33702243,0.0055298,99.0101,165.4092,290.2208,69.3035,818.964,739.805,0.00049119
37919,1754572125,14.26358463,0.0049979,99.0419,153.2544,23.2028,337.1392,839.826,768.036,0.00037474
37921,1754604655,13.95063072,0.0084691,99.0408,263.6332,86.0233,275.0605,972.675,849.211,0.00020613
37925,1754727293,14.76791637,0.0060607,99.1026,74.3833,15.436,344.8677,682.003,596.94,0.0011541
37926,1754674628,14.23136625,0.0053698,98.7348,284.8742,225.5211,260.993,853.391,776.142,0.0010093
37927,1754456202,14.64092121,0.00063271,98.8047,352.309,310.1165,49.948,684.459,675.528,0.0027845699
37928,1754689426,14.3650066,0.0074192,98.9331,90.9313,43.5779,317.1234,823.12,717.052,0.00051346
37935,1754683811,2.29694996,0.7250943,47.9401,151.7914,83.5166,347.0111,35480.043,292.255,0.0013151
37959,1754669910,14.56991037,0.0058245,74.0113,296.9259,107.927,46.9523,744.152,661.665,0.00041827
37960,1754546944,14.07221069,0.02516644,74.0585,50.2005,99.2286,263.7408,1051.281,686.517,0.00093185209
37961,1753643321,14.5647138,0.0042976,74.0418,39.044,153.5762,206.7606,735.031,674.154,0.00085132
37966,1754739462,14.99603575,0.0007731,73.9816,128.065,339.6072,20.4805,573.492,562.752,0.0029356
37967,1754708372,14.38678311,0.0154307,74.0175,9.7076,177.6588,182.5325,873.061,652.68,0.0017024
37968,1754192714,14.96892441,0.0089366,74.0011,178.5828,327.955,31.6218,638.658,514.356,0.0007766
37971,1754432202,14.46403691,0.00703719,73.9938,283.2937,84.8129,276.1055,787.494,687.347,0.00074245558
37973,1754632629,14.4120086,0.0040253,74.0352,177.9925,286.2739,73.399,783.247,725.824,0.00047614
37975,1754723190,14.6998234,0.0105041,74.003,208.7998,233.4945,125.6517,735.068,587.185,0.0018336
37978,1754700885,15.25165316,0.0029615,74.0415,2.1301,60.0491,300.3644,510.632,469.95,0.0030875
37985,1754652950,14.3542948,0.0022517,74.0257,137.4699,292.0692,67.8069,789.745,757.538,3.3841e-05
37988,1754486986,14.67003332,0.0069039,74.0623,271.2983,344.1616,15.7392,719.317,621.989,0.0005032
37993,1754546602,14.57853621,0.00244071,74.0228,49.907,168.438,191.735,717.391,682.839,0.00088929392
37994,1754715256,14.39257329,0.0024624,74.0366,147.4308,261.2984,98.5381,778.535,743.376,0.0002522
37996,1754460553,14.06985608,0.0231815,74.0603,68.4747,209.154,149.6496,1037.723,701.691,0.0023403
37998,1754005795,14.44784782,0.0020779,74.0377,124.2628,235.7321,124.1869,757.532,727.939,0.00041683
38001,1754687554,14.77130035,0.0067756,74.0032,19.9971,200.4495,310.5745,685.941,590.859,0.00084597
38006,1754740788,14.43657996,0.007632,73.8481,273.8628,251.7436,107.5404,800.815,692.065,0.0018771
38017,1754563618,14.41081346,0.0113085,86.3401,221.179,162.8179,197.69,835.594,674.266,0.0032283
38022,1754684373,14.40027987,0.004759,86.2659,71.5102,101.0711,259.5845,792.371,724.445,0.00079405
38028,1754680158,14.45649152,0.0028568,86.3204,54.9737,177.505,182.63,760.231,719.562,0.00019027
38054,1754623348,13.61335682,0.0360635,73.9515,112.753,115.6162,32.5526,1298.038,763.65,0.0023762
38055,1754561865,14.74805779,0.0070055,74.0103,96.2856,255.8212,284.4267,694.976,596.564,0.00043275
38060,1754538530,14.62932238,0.006163,74.04,179.979,318.7822,40.8699,727.246,640.202,0.0004466
38062,1754634578,14.88034865,0.0019651,74.0103,184.3465,336.6426,90.6021,617.799,590.357,0.0015154
38064,1754677843,14.55044947,0.0048222,74.0249,3.0249,152.1116,208.2648,743.397,675.044,0.00072063
38067,1754660420,14.6050012,0.0072164,74.0183,155.8672,334.068,203.4567,742.579,640.544,0.0003281
38068,1754550436,14.35734384,0.00273228,74.0204,182.3447,301.975,57.8746,792.167,753.091,0.00021327164
38089,1754645429,5.67819145,0.497099,49.6092,277.0071,256.5265,45.5307,13491.002,296.246,0.00068716
38095,1754722280,3.18441205,0.6614804,20.7183,192.8272,99.4437,335.4273,26046.684,228.285,0.0020862
38100,1754698812,5.49352649,0.5013632,50.6694,106.2938,0.8882,359.8128,13991.666,387.138,0.00071351
38116,1754383830,14.16655209,0.0072658,98.7286,258.6351,156.9322,220.294,889.11,784.267,0.00052061
38121,1754364854,14.20837268,0.0209636,99.1035,4.4536,137.4685,224.2946,973.476,671.573,0.0011481
38122,1754696234,14.41728544,0.0230234,98.3159,226.4594,177.0654,183.195,916.973,588.617,0.00029931
38124,1754199430,13.40843586,0.0355246,97.7854,197.6018,286.7786,69.4664,1372.016,840.265,0.00017297
38130,1754559097,13.76725165,0.02087642,98.6119,283.0634,207.7321,151.2574,1129.045,822.009,0.0016018753
38135,1754213563,14.24784738,0.0224828,98.678,273.6722,93.6301,269.0618,970.81,647.627,0.00049423
38137,1754645267,14.06007792,0.0046876,98.8828,265.6815,63.6659,296.9312,907.058,839.077,0.00020132
38143,1754644862,14.04568977,0.005688,99.0434,276.8821,211.2369,148.5414,919.291,836.745,0.00034224
38144,1753646137,13.58571139,0.0290694,98.9784,44.7974,187.3791,172.3026,1256.558,825.225,0.0012532
38146,1754520788,14.57230889,0.0208721,99.4976,281.4782,125.4484,48.7222,849.911,554.351,0.00093018
38147,1754724224,14.23011519,0.0049489,98.5666,238.9215,305.591,54.0662,850.787,779.589,0.00042135
38149,1754462650,14.25700625,0.0077929,98.3488,216.4942,178.5103,181.6325,862.126,750.154,0.00015226
38155,1754315102,14.22733058,0.009832,98.4458,126.0213,146.4112,214.3352,886.861,745.393,0.0019263
38157,1754695639,14.20852323,0.0277387,99.6621,116.0634,107.3253,255.8464,1022.209,622.738,0.00058846
38159,1754432139,14.0323093,0.0056542,99.328,106.4688,336.0239,23.8296,923.684,841.577,0.00023931
38163,1754636628,14.05516898,0.0075627,99.142,255.8105,233.31,126.1102,929.607,819.904,0.00049921
38166,1754718080,14.28460732,0.0056109,99.0791,319.0704,49.5392,311.066,837.141,756.624,0.0021136
38169,1753583561,14.65956499,0.0034904,98.9679,168.9627,134.1737,226.2342,698.623,649.393,0.0021684
38173,1754347318,14.35760487,0.0168786,99.0136,111.2867,132.9369,228.6117,893.236,651.849,0.00076705
38174,1754509052,14.39303358,0.0186852,97.8647,224.4405,110.6939,13.2891,894.196,627.411,0.00051005
38175,1754676530,14.43882253,0.0174278,98.1102,314.3956,113.0835,248.8833,869.855,621.549,0.00073486
38176,1754607423,14.48033198,0.0107566,98.2841,223.4922,37.976,322.8956,808.563,655.6,0.00066438
38177,1754467127,14.45546558,0.0123442,98.5311,238.9319,97.6053,278.2723,828.104,652.363,0.00049273
38178,1754698125,14.38411897,0.011945,98.7529,239.1912,265.7137,125.6268,849.062,678.443,0.00036369
38179,1754483457,14.22410361,0.0127298,98.8536,235.7044,282.6594,232.7368,908.81,725.619,0.00028633
38180,1754655861,14.23742532,0.0138376,98.9036,238.1256,250.0423,266.4698,912.23,713.221,0.00026192
38183,1754717231,13.45294132,0.0045899,100.4639,131.9074,230.8075,283.4066,1123.901,1055.349,0.0022457
38184,1754647042,15.04748539,0.0080325,97.7598,23.9936,311.8167,47.6217,607.948,496.611,0.00081841
38187,1754632434,1.71974231,0.3793621,1.2235,45.8356,301.6669,26.8909,34213.625,11885.948,0.0
38190,1754679358,15.36903167,0.0016008,74.0148,245.721,313.7285,46.2595,466.214,444.336,0.0045194
38197,1754679160,14.67373396,0.0133562,73.9386,242.8959,147.9034,213.0359,763.597,575.339,0.0014706
38199,1754594647,13.64576897,0.0369255,73.9552,270.6781,222.7799,134.4035,1292.254,745.96,0.000505
38208,1754743938,14.78020034,0.0010104,74.0112,326.1838,71.9535,304.5426,642.67,628.496,0.0023978
38212,1754414163,14.76495648,0.0095333,74.0544,329.3412,69.8464,291.2934,707.319,573.5,0.000305
38220,1754572429,14.85221309,0.0010335,74.0186,322.4595,39.3828,320.8101,620.119,605.668,0.0020202
38228,1754649050,14.26956899,0.0062389,86.2931,102.1724,237.5732,246.0001,846.718,757.127,0.00018364
38241,1754459633,14.53728401,0.0005114,86.3197,47.2041,114.5785,245.5955,717.126,709.873,0.00053641
38246,1754690025,5.58659887,0.5010755,49.5269,174.0456,134.8752,278.9044,13760.934,315.649,0.00064208
38262,1754703313,14.47701937,0.0153348,97.8397,148.41,220.1229,157.1787,842.217,624.116,0.00038196
38263,1754742843,14.35323854,0.0198546,97.932,127.6727,240.3812,117.7468,915.995,631.99,0.00038049
38264,1754706944,14.26925504,0.0237016,97.8889,86.4517,280.6316,234.0292,972.209,631.847,0.000355
38265,1754570855,14.31630287,0.021387,97.8326,146.6027,140.664,221.0303,939.514,633.063,0.00037323
38266,1754666508,14.25074367,0.0237676,97.9132,196.1088,334.8296,24.1451,979.048,637.442,0.00074444
38271,1754726758,14.33332042,0.0020204,81.1999,92.606,128.3947,231.9055,795.08,766.153,0.0012148
38272,1754733538,14.36779607,0.0027676,81.1969,94.6639,232.7711,307.1964,788.941,749.38,0.0017804
38273,1753054318,14.39457961,0.0007485,81.2175,100.0472,42.0444,318.1316,765.635,754.949,0.0011709
38274,1754343719,14.42375546,0.0013875,81.1901,75.246,185.16,174.9448,760.554,740.771,0.001621
38276,1753270547,14.36962695,0.0022037,81.1869,106.7328,290.2458,249.058,784.303,752.804,0.0014512
38278,1754643949,14.34173885,0.0001721,81.1664,89.247,261.9081,219.2642,779.047,776.584,0.00066011
38280,1754682891,14.42205922,0.0001799,81.1802,63.4404,195.1371,164.9764,752.504,749.939,0.0021478
38281,1753074943,14.03865729,0.0016804,82.5297,173.44,99.6299,260.6772,892.639,868.244,0.0014298
38282,1754744074,14.01875056,0.0032095,82.5384,153.8835,40.207,320.1465,910.63,863.993,0.00098444
38283,1752991634,14.00271496,0.0018148,82.5517,181.7349,118.9306,241.3686,906.053,879.662,0.00038198
38285,1754322324,13.97888657,0.0016167,82.5486,185.3374,80.6312,279.6683,912.886,889.349,0.0010938
38286,1754365642,14.01798205,0.0050479,82.5369,157.4995,84.2679,276.4244,924.254,850.9,0.0015818
38288,1754352241,14.41512434,0.0031486,81.254,316.8779,64.9638,295.4814,775.962,731.053,0.0018087
38289,1754350905,14.22657937,0.0023726,82.5267,111.8505,325.634,34.3305,833.45,799.31,0.00040407
